{
 "generated_at": "2026-06-15T10:55:27Z",
 "sources": [
  {
   "name": "CelesTrak",
   "url": "https://celestrak.org/NORAD/elements/",
   "license": "frei verfügbar; Attribution. Ursprünglich USSPACECOM/Space-Track."
  },
  {
   "name": "GCAT (J. McDowell, planet4589.org)",
   "url": "https://planet4589.org/space/gcat/",
   "license": "CC-BY 4.0"
  }
 ],
 "satellites": [
  {
   "norad": 60541,
   "name": "UMBRA-09",
   "intl": "2024-149CB",
   "group": "sar",
   "gcat": {
    "class": "B",
    "category": "IMG-R",
    "owner": "UMBRA",
    "state": "US"
   },
   "omm": {
    "OBJECT_NAME": "UMBRA-09",
    "OBJECT_ID": "2024-149CB",
    "EPOCH": "2026-06-15T03:44:25.242144",
    "MEAN_MOTION": 15.17992291,
    "ECCENTRICITY": 0.0000418,
    "INCLINATION": 97.6978,
    "RA_OF_ASC_NODE": 253.3262,
    "ARG_OF_PERICENTER": 292.6648,
    "MEAN_ANOMALY": 67.4541,
    "EPHEMERIS_TYPE": 0,
    "CLASSIFICATION_TYPE": "U",
    "NORAD_CAT_ID": 60541,
    "ELEMENT_SET_NO": 999,
    "REV_AT_EPOCH": 10041,
    "BSTAR": 0.00069936,
    "MEAN_MOTION_DOT": 0.00014163,
    "MEAN_MOTION_DDOT": 0
   }
  },
  {
   "norad": 60547,
   "name": "UMBRA-10",
   "intl": "2024-149CH",
   "group": "sar",
   "gcat": {
    "class": "B",
    "category": "IMG-R",
    "owner": "UMBRA",
    "state": "US"
   },
   "omm": {
    "OBJECT_NAME": "UMBRA-10",
    "OBJECT_ID": "2024-149CH",
    "EPOCH": "2026-06-15T03:43:46.801920",
    "MEAN_MOTION": 15.17990785,
    "ECCENTRICITY": 0.0000714,
    "INCLINATION": 97.6985,
    "RA_OF_ASC_NODE": 253.3533,
    "ARG_OF_PERICENTER": 72.8235,
    "MEAN_ANOMALY": 287.3077,
    "EPHEMERIS_TYPE": 0,
    "CLASSIFICATION_TYPE": "U",
    "NORAD_CAT_ID": 60547,
    "ELEMENT_SET_NO": 999,
    "REV_AT_EPOCH": 10042,
    "BSTAR": 0.00061663,
    "MEAN_MOTION_DOT": 0.00012476,
    "MEAN_MOTION_DDOT": 0
   }
  },
  {
   "norad": 66748,
   "name": "UMBRA-11",
   "intl": "2025-276CL",
   "group": "sar",
   "gcat": {
    "class": "B",
    "category": "IMG-R",
    "owner": "UMBRA",
    "state": "US"
   },
   "omm": {
    "OBJECT_NAME": "UMBRA-11",
    "OBJECT_ID": "2025-276CL",
    "EPOCH": "2026-06-15T03:49:25.786272",
    "MEAN_MOTION": 15.26651444,
    "ECCENTRICITY": 0.0001077,
    "INCLINATION": 97.4206,
    "RA_OF_ASC_NODE": 240.8017,
    "ARG_OF_PERICENTER": 4.9332,
    "MEAN_ANOMALY": 355.1917,
    "EPHEMERIS_TYPE": 0,
    "CLASSIFICATION_TYPE": "U",
    "NORAD_CAT_ID": 66748,
    "ELEMENT_SET_NO": 999,
    "REV_AT_EPOCH": 3018,
    "BSTAR": 0.00066384,
    "MEAN_MOTION_DOT": 0.00017358,
    "MEAN_MOTION_DDOT": 0
   }
  },
  {
   "norad": 67371,
   "name": "UMBRA-12",
   "intl": "2026-004J",
   "group": "sar",
   "gcat": {
    "class": "B",
    "category": "IMG-R",
    "owner": "UMBRA",
    "state": "US"
   },
   "omm": {
    "OBJECT_NAME": "UMBRA-12",
    "OBJECT_ID": "2026-004J",
    "EPOCH": "2026-06-14T22:58:21.526176",
    "MEAN_MOTION": 14.89303712,
    "ECCENTRICITY": 0.0007526,
    "INCLINATION": 97.8007,
    "RA_OF_ASC_NODE": 164.758,
    "ARG_OF_PERICENTER": 129.6482,
    "MEAN_ANOMALY": 230.54,
    "EPHEMERIS_TYPE": 0,
    "CLASSIFICATION_TYPE": "U",
    "NORAD_CAT_ID": 67371,
    "ELEMENT_SET_NO": 999,
    "REV_AT_EPOCH": 2297,
    "BSTAR": 0.00044852,
    "MEAN_MOTION_DOT": 0.00004199,
    "MEAN_MOTION_DDOT": 0
   }
  },
  {
   "norad": 39160,
   "name": "VNREDSAT 1",
   "intl": "2013-021B",
   "group": "resource",
   "gcat": {
    "class": "C",
    "category": "IMG",
    "owner": "VAST",
    "state": "VN"
   },
   "omm": {
    "OBJECT_NAME": "VNREDSAT 1",
    "OBJECT_ID": "2013-021B",
    "EPOCH": "2026-06-15T04:14:02.400288",
    "MEAN_MOTION": 14.64854848,
    "ECCENTRICITY": 0.0001705,
    "INCLINATION": 97.9085,
    "RA_OF_ASC_NODE": 219.67,
    "ARG_OF_PERICENTER": 90.1334,
    "MEAN_ANOMALY": 270.0065,
    "EPHEMERIS_TYPE": 0,
    "CLASSIFICATION_TYPE": "U",
    "NORAD_CAT_ID": 39160,
    "ELEMENT_SET_NO": 999,
    "REV_AT_EPOCH": 69999,
    "BSTAR": 0.000083499,
    "MEAN_MOTION_DOT": 0.00000401,
    "MEAN_MOTION_DDOT": 0
   }
  },
  {
   "norad": 32060,
   "name": "WORLDVIEW-1 (WV-1)",
   "intl": "2007-041A",
   "group": "resource",
   "gcat": {
    "class": "B",
    "category": "IMG",
    "owner": "DGLO",
    "state": "US"
   },
   "omm": {
    "OBJECT_NAME": "WORLDVIEW-1 (WV-1)",
    "OBJECT_ID": "2007-041A",
    "EPOCH": "2026-06-15T04:35:31.748352",
    "MEAN_MOTION": 15.2424743,
    "ECCENTRICITY": 0.0002434,
    "INCLINATION": 97.3878,
    "RA_OF_ASC_NODE": 285.9633,
    "ARG_OF_PERICENTER": 27.0836,
    "MEAN_ANOMALY": 333.0528,
    "EPHEMERIS_TYPE": 0,
    "CLASSIFICATION_TYPE": "U",
    "NORAD_CAT_ID": 32060,
    "ELEMENT_SET_NO": 999,
    "REV_AT_EPOCH": 4257,
    "BSTAR": 0.00020109,
    "MEAN_MOTION_DOT": 0.00004836,
    "MEAN_MOTION_DDOT": 0
   }
  },
  {
   "norad": 35946,
   "name": "WORLDVIEW-2 (WV-2)",
   "intl": "2009-055A",
   "group": "resource",
   "gcat": {
    "class": "B",
    "category": "IMG",
    "owner": "DGLO",
    "state": "US"
   },
   "omm": {
    "OBJECT_NAME": "WORLDVIEW-2 (WV-2)",
    "OBJECT_ID": "2009-055A",
    "EPOCH": "2026-06-15T03:29:57.308352",
    "MEAN_MOTION": 14.37898892,
    "ECCENTRICITY": 0.000359,
    "INCLINATION": 98.4736,
    "RA_OF_ASC_NODE": 239.6234,
    "ARG_OF_PERICENTER": 215.0726,
    "MEAN_ANOMALY": 145.0225,
    "EPHEMERIS_TYPE": 0,
    "CLASSIFICATION_TYPE": "U",
    "NORAD_CAT_ID": 35946,
    "ELEMENT_SET_NO": 999,
    "REV_AT_EPOCH": 87535,
    "BSTAR": 0.000049967,
    "MEAN_MOTION_DOT": 0.00000107,
    "MEAN_MOTION_DDOT": 0
   }
  },
  {
   "norad": 40115,
   "name": "WORLDVIEW-3 (WV-3)",
   "intl": "2014-048A",
   "group": "resource",
   "gcat": {
    "class": "B",
    "category": "IMG",
    "owner": "DGLO",
    "state": "US"
   },
   "omm": {
    "OBJECT_NAME": "WORLDVIEW-3 (WV-3)",
    "OBJECT_ID": "2014-048A",
    "EPOCH": "2026-06-15T03:30:10.290816",
    "MEAN_MOTION": 14.85019133,
    "ECCENTRICITY": 0.0001151,
    "INCLINATION": 97.8566,
    "RA_OF_ASC_NODE": 241.0069,
    "ARG_OF_PERICENTER": 28.7082,
    "MEAN_ANOMALY": 331.4196,
    "EPHEMERIS_TYPE": 0,
    "CLASSIFICATION_TYPE": "U",
    "NORAD_CAT_ID": 40115,
    "ELEMENT_SET_NO": 999,
    "REV_AT_EPOCH": 64160,
    "BSTAR": 0.000092494,
    "MEAN_MOTION_DOT": 0.00000736,
    "MEAN_MOTION_DDOT": 0
   }
  },
  {
   "norad": 36834,
   "name": "YAOGAN-10",
   "intl": "2010-038A",
   "group": "resource",
   "gcat": {
    "class": null,
    "category": null,
    "owner": null,
    "state": null
   },
   "omm": {
    "OBJECT_NAME": "YAOGAN-10",
    "OBJECT_ID": "2010-038A",
    "EPOCH": "2026-06-15T04:49:04.761984",
    "MEAN_MOTION": 14.8534398,
    "ECCENTRICITY": 0.0001701,
    "INCLINATION": 97.8975,
    "RA_OF_ASC_NODE": 189.6207,
    "ARG_OF_PERICENTER": 86.0624,
    "MEAN_ANOMALY": 3.2935,
    "EPHEMERIS_TYPE": 0,
    "CLASSIFICATION_TYPE": "U",
    "NORAD_CAT_ID": 36834,
    "ELEMENT_SET_NO": 999,
    "REV_AT_EPOCH": 85691,
    "BSTAR": 0.00015052,
    "MEAN_MOTION_DOT": 0.0000124,
    "MEAN_MOTION_DDOT": 0
   }
  },
  {
   "norad": 40143,
   "name": "YAOGAN-21",
   "intl": "2014-053A",
   "group": "resource",
   "gcat": {
    "class": "D",
    "category": "IMG",
    "owner": "ZZB",
    "state": "CN"
   },
   "omm": {
    "OBJECT_NAME": "YAOGAN-21",
    "OBJECT_ID": "2014-053A",
    "EPOCH": "2026-06-15T04:42:04.025088",
    "MEAN_MOTION": 15.26347785,
    "ECCENTRICITY": 0.0009927,
    "INCLINATION": 97.1473,
    "RA_OF_ASC_NODE": 206.5168,
    "ARG_OF_PERICENTER": 99.6296,
    "MEAN_ANOMALY": 260.6065,
    "EPHEMERIS_TYPE": 0,
    "CLASSIFICATION_TYPE": "U",
    "NORAD_CAT_ID": 40143,
    "ELEMENT_SET_NO": 999,
    "REV_AT_EPOCH": 65465,
    "BSTAR": 0.00022771,
    "MEAN_MOTION_DOT": 0.00005855,
    "MEAN_MOTION_DDOT": 0
   }
  }
 ]
}
