WORLDVIEW-1 (WV-1)      
1 32060U 07041A   26166.19133968  .00004836  00000+0  20109-3 0  9999
2 32060  97.3878 285.9633 0002434  27.0836 333.0528 15.24247430 42574
WORLDVIEW-2 (WV-2)      
1 35946U 09055A   26166.14580218  .00000107  00000+0  49967-4 0  9992
2 35946  98.4736 239.6234 0003590 215.0726 145.0225 14.37898892875351
YAOGAN-10               
1 36834U 10038A   26166.20074956  .00001240  00000+0  15052-3 0  9992
2 36834  97.8975 189.6207 0001701  86.0624   3.2935 14.85343980856915
VNREDSAT 1              
1 39160U 13021B   26166.17641667  .00000401  00000+0  83499-4 0  9996
2 39160  97.9085 219.6700 0001705  90.1334 270.0065 14.64854848699991
WORLDVIEW-3 (WV-3)      
1 40115U 14048A   26166.14595244  .00000736  00000+0  92494-4 0  9990
2 40115  97.8566 241.0069 0001151  28.7082 331.4196 14.85019133641600
YAOGAN-21               
1 40143U 14053A   26166.19587992  .00005855  00000+0  22771-3 0  9990
2 40143  97.1473 206.5168 0009927  99.6296 260.6065 15.26347785654650
UMBRA-09                
1 60541U 24149CB  26166.15584771  .00014163  00000+0  69936-3 0  9995
2 60541  97.6978 253.3262 0000418 292.6648  67.4541 15.17992291100416
UMBRA-10                
1 60547U 24149CH  26166.15540280  .00012476  00000+0  61663-3 0  9992
2 60547  97.6985 253.3533 0000714  72.8235 287.3077 15.17990785100424
UMBRA-11                
1 66748U 25276CL  26166.15932623  .00017358  00000+0  66384-3 0  9998
2 66748  97.4206 240.8017 0001077   4.9332 355.1917 15.26651444 30180
UMBRA-12                
1 67371U 26004J   26165.95719359  .00004199  00000+0  44852-3 0  9992
2 67371  97.8007 164.7580 0007526 129.6482 230.5400 14.89303712 22972
